GOES 4 [-]              
1 11964U 80074A   17346.05535397  .00000067  00000-0  00000+0 0  9990
2 11964  13.9828 332.9193 0033208  12.7151 171.4419  0.99227318 96774
